start=new Date('2022-03-14T00:00:00.000Z').valueOf();
sats=[{"FILE":"3358388","EPOCH":"2022-03-13T21:14:54.422304","ELEMENT_SET_NO":"999","MEAN_MOTION":"15.06394986","TIME_SYSTEM":"UTC","ARG_OF_PERICENTER":"77.1216","RA_OF_ASC_NODE":"246.4795","PERIAPSIS":"546.337","TLE_LINE2":"2 44754  53.0543 246.4795 0001288  77.1216 282.9916 15.06394986129174","SITE":"AFETR","LAUNCH_DATE":"2019-11-11","EPHEMERIS_TYPE":"0","ECCENTRICITY":"0.00012880","OBJECT_NAME":"STARLINK-1049","MEAN_MOTION_DOT":"-0.00002524","CLASSIFICATION_TYPE":"U","APOAPSIS":"548.121","CENTER_NAME":"EARTH","MEAN_ELEMENT_THEORY":"SGP4","BSTAR":"-0.00015060000000","MEAN_ANOMALY":"282.9916","PERIOD":"95.592","REF_FRAME":"TEME","SEMIMAJOR_AXIS":"6925.364","GP_ID":"198686741","TLE_LINE1":"1 44754U 19074AT  22072.88535211 -.00002524  00000-0 -15060-3 0  9991","REV_AT_EPOCH":"12917","OBJECT_ID":"2019-074AT","OBJECT_TYPE":"PAYLOAD","RCS_SIZE":"LARGE","NORAD_CAT_ID":"44754","DECAY_DATE":null,"MEAN_MOTION_DDOT":"0.0000000000000","COUNTRY_CODE":"US","INCLINATION":"53.0543"},{"REF_FRAME":"TEME","MEAN_ANOMALY":"89.9280","PERIOD":"90.578","BSTAR":"0.00069701000000","MEAN_ELEMENT_THEORY":"SGP4","CENTER_NAME":"EARTH","APOAPSIS":"303.460","TLE_LINE1":"1 44755U 19074AU  22072.90259366  .00216095  00000-0  69701-3 0  9998","REV_AT_EPOCH":"12954","GP_ID":"198685999","SEMIMAJOR_AXIS":"6681.005","OBJECT_TYPE":"PAYLOAD","RCS_SIZE":"LARGE","OBJECT_ID":"2019-074AU","INCLINATION":"53.0425","COUNTRY_CODE":"US","MEAN_MOTION_DDOT":"0.0000000000000","DECAY_DATE":null,"NORAD_CAT_ID":"44755","TIME_SYSTEM":"UTC","MEAN_MOTION":"15.89791046","ELEMENT_SET_NO":"999","FILE":"3358388","EPOCH":"2022-03-13T21:39:44.092224","LAUNCH_DATE":"2019-11-11","SITE":"AFETR","TLE_LINE2":"2 44755  53.0425 259.4863 0000883 270.1644  89.9280 15.89791046129543","PERIAPSIS":"302.280","RA_OF_ASC_NODE":"259.4863","ARG_OF_PERICENTER":"270.1644","ECCENTRICITY":"0.00008830","EPHEMERIS_TYPE":"0","CLASSIFICATION_TYPE":"U","MEAN_MOTION_DOT":"0.00216095","OBJECT_NAME":"STARLINK-1050"},{"EPHEMERIS_TYPE":"0","ECCENTRICITY":"0.00015390","OBJECT_NAME":"STARLINK-1052","MEAN_MOTION_DOT":"-0.00000796","CLASSIFICATION_TYPE":"U","FILE":"3358388","EPOCH":"2022-03-13T21:17:33.729216","ELEMENT_SET_NO":"999","MEAN_MOTION":"15.06395481","TIME_SYSTEM":"UTC","ARG_OF_PERICENTER":"66.7130","PERIAPSIS":"546.162","RA_OF_ASC_NODE":"266.4639","TLE_LINE2":"2 44757  53.0540 266.4639 0001539  66.7130 293.4021 15.06395481128894","SITE":"AFETR","LAUNCH_DATE":"2019-11-11","OBJECT_ID":"2019-074AW","RCS_SIZE":"LARGE","OBJECT_TYPE":"PAYLOAD","NORAD_CAT_ID":"44757","DECAY_DATE":null,"MEAN_MOTION_DDOT":"0.0000000000000","COUNTRY_CODE":"US","INCLINATION":"53.0540","APOAPSIS":"548.293","CENTER_NAME":"EARTH","MEAN_ELEMENT_THEORY":"SGP4","BSTAR":"-0.00003452000000","PERIOD":"95.592","MEAN_ANOMALY":"293.4021","REF_FRAME":"TEME","GP_ID":"198685747","SEMIMAJOR_AXIS":"6925.362","TLE_LINE1":"1 44757U 19074AW  22072.88719594 -.00000796  00000-0 -34520-4 0  9994","REV_AT_EPOCH":"12889"},{"RA_OF_ASC_NODE":"286.4266","PERIAPSIS":"546.180","ARG_OF_PERICENTER":"62.7321","SITE":"AFETR","TLE_LINE2":"2 44758  53.0557 286.4266 0001532  62.7321 297.3824 15.06390901128797","LAUNCH_DATE":"2019-11-11","ELEMENT_SET_NO":"999","EPOCH":"2022-03-13T21:29:28.785984","FILE":"3358080","MEAN_MOTION":"15.06390901","TIME_SYSTEM":"UTC","OBJECT_NAME":"STARLINK-1053","MEAN_MOTION_DOT":"-0.00001701","CLASSIFICATION_TYPE":"U","EPHEMERIS_TYPE":"0","ECCENTRICITY":"0.00015320","SEMIMAJOR_AXIS":"6925.376","GP_ID":"198659879","TLE_LINE1":"1 44758U 19074AX  22072.89547206 -.00001701  00000-0 -95312-4 0  9998","REV_AT_EPOCH":"12879","MEAN_ELEMENT_THEORY":"SGP4","CENTER_NAME":"EARTH","APOAPSIS":"548.302","BSTAR":"-0.00009531200000","REF_FRAME":"TEME","MEAN_ANOMALY":"297.3824","PERIOD":"95.593","NORAD_CAT_ID":"44758","DECAY_DATE":null,"MEAN_MOTION_DDOT":"0.0000000000000","INCLINATION":"53.0557","COUNTRY_CODE":"US","OBJECT_ID":"2019-074AX","OBJECT_TYPE":"PAYLOAD","RCS_SIZE":"LARGE"},{"COUNTRY_CODE":"US","INCLINATION":"53.0531","NORAD_CAT_ID":"44759","DECAY_DATE":null,"MEAN_MOTION_DDOT":"0.0000000000000","RCS_SIZE":"LARGE","OBJECT_TYPE":"PAYLOAD","OBJECT_ID":"2019-074AY","GP_ID":"198659795","SEMIMAJOR_AXIS":"6925.354","TLE_LINE1":"1 44759U 19074AY  22072.88535054 -.00000375  00000-0 -62745-5 0  9997","REV_AT_EPOCH":"12879","BSTAR":"-0.00000627450000","MEAN_ANOMALY":"294.7249","PERIOD":"95.592","REF_FRAME":"TEME","APOAPSIS":"548.301","MEAN_ELEMENT_THEORY":"SGP4","CENTER_NAME":"EARTH","CLASSIFICATION_TYPE":"U","OBJECT_NAME":"STARLINK-1054","MEAN_MOTION_DOT":"-0.00000375","ECCENTRICITY":"0.00015620","EPHEMERIS_TYPE":"0","TLE_LINE2":"2 44759  53.0531 286.4784 0001562  65.3903 294.7249 15.06398204128799","SITE":"AFETR","LAUNCH_DATE":"2019-11-11","ARG_OF_PERICENTER":"65.3903","PERIAPSIS":"546.137","RA_OF_ASC_NODE":"286.4784","MEAN_MOTION":"15.06398204","TIME_SYSTEM":"UTC","FILE":"3358075","EPOCH":"2022-03-13T21:14:54.286656","ELEMENT_SET_NO":"999"},{"GP_ID":"198685499","SEMIMAJOR_AXIS":"6925.329","REV_AT_EPOCH":"12862","TLE_LINE1":"1 44760U 19074AZ  22072.87060243 -.00002290  00000-0 -13483-3 0  9992","MEAN_ELEMENT_THEORY":"SGP4","CENTER_NAME":"EARTH","APOAPSIS":"548.403","BSTAR":"-0.00013483000000","REF_FRAME":"TEME","PERIOD":"95.592","MEAN_ANOMALY":"304.1288","NORAD_CAT_ID":"44760","DECAY_DATE":null,"MEAN_MOTION_DDOT":"0.0000000000000","INCLINATION":"53.0545","COUNTRY_CODE":"US","OBJECT_ID":"2019-074AZ","OBJECT_TYPE":"PAYLOAD","RCS_SIZE":"LARGE","RA_OF_ASC_NODE":"286.5298","PERIAPSIS":"545.986","ARG_OF_PERICENTER":"55.9866","SITE":"AFETR","TLE_LINE2":"2 44760  53.0545 286.5298 0001745  55.9866 304.1288 15.06406263128629","LAUNCH_DATE":"2019-11-11","ELEMENT_SET_NO":"999","EPOCH":"2022-03-13T20:53:40.049952","FILE":"3358388","MEAN_MOTION":"15.06406263","TIME_SYSTEM":"UTC","OBJECT_NAME":"STARLINK-1055","MEAN_MOTION_DOT":"-0.00002290","CLASSIFICATION_TYPE":"U","EPHEMERIS_TYPE":"0","ECCENTRICITY":"0.00017450"},{"DECAY_DATE":null,"MEAN_MOTION_DDOT":"0.0000000000000","NORAD_CAT_ID":"44761","INCLINATION":"53.0541","COUNTRY_CODE":"US","OBJECT_ID":"2019-074BA","OBJECT_TYPE":"PAYLOAD","RCS_SIZE":"LARGE","REV_AT_EPOCH":"12879","TLE_LINE1":"1 44761U 19074BA  22072.88166891 -.00001289  00000-0 -67630-4 0  9991","GP_ID":"198659800","SEMIMAJOR_AXIS":"6925.338","MEAN_ELEMENT_THEORY":"SGP4","CENTER_NAME":"EARTH","APOAPSIS":"548.501","REF_FRAME":"TEME","PERIOD":"95.592","MEAN_ANOMALY":"296.7605","BSTAR":"-0.00006763000000","MEAN_MOTION_DOT":"-0.00001289","OBJECT_NAME":"STARLINK-1056","CLASSIFICATION_TYPE":"U","EPHEMERIS_TYPE":"0","ECCENTRICITY":"0.00018750","PERIAPSIS":"545.904","RA_OF_ASC_NODE":"286.4837","ARG_OF_PERICENTER":"63.3576","LAUNCH_DATE":"2019-11-11","SITE":"AFETR","TLE_LINE2":"2 44761  53.0541 286.4837 0001875  63.3576 296.7605 15.06403545128796","ELEMENT_SET_NO":"999","EPOCH":"2022-03-13T21:09:36.193824","FILE":"3358075","TIME_SYSTEM":"UTC","MEAN_MOTION":"15.06403545"},{"PERIAPSIS":"546.106","RA_OF_ASC_NODE":"266.4611","ARG_OF_PERICENTER":"62.2430","SITE":"AFETR","TLE_LINE2":"2 44762  53.0522 266.4611 0001609  62.2430 297.8722 15.06397825128892","LAUNCH_DATE":"2019-11-11","ELEMENT_SET_NO":"999","EPOCH":"2022-03-13T21:12:15.194016","FILE":"3358388","MEAN_MOTION":"15.06397825","TIME_SYSTEM":"UTC","OBJECT_NAME":"STARLINK-1057","MEAN_MOTION_DOT":"-0.00000686","CLASSIFICATION_TYPE":"U","EPHEMERIS_TYPE":"0","ECCENTRICITY":"0.00016090","GP_ID":"198686995","SEMIMAJOR_AXIS":"6925.355","TLE_LINE1":"1 44762U 19074BB  22072.88350919 -.00000686  00000-0 -27125-4 0  9993","REV_AT_EPOCH":"12889","CENTER_NAME":"EARTH","MEAN_ELEMENT_THEORY":"SGP4","APOAPSIS":"548.335","BSTAR":"-0.00002712500000","REF_FRAME":"TEME","PERIOD":"95.592","MEAN_ANOMALY":"297.8722","NORAD_CAT_ID":"44762","MEAN_MOTION_DDOT":"0.0000000000000","DECAY_DATE":null,"INCLINATION":"53.0522","COUNTRY_CODE":"US","OBJECT_ID":"2019-074BB","RCS_SIZE":"LARGE","OBJECT_TYPE":"PAYLOAD"},{"ELEMENT_SET_NO":"999","EPOCH":"2022-03-13T21:41:27.472416","FILE":"3358388","TIME_SYSTEM":"UTC","MEAN_MOTION":"15.06398616","RA_OF_ASC_NODE":"286.3979","PERIAPSIS":"546.064","ARG_OF_PERICENTER":"60.0767","LAUNCH_DATE":"2019-11-11","SITE":"AFETR","TLE_LINE2":"2 44763  53.0555 286.3979 0001666  60.0767 300.0387 15.06398616128623","EPHEMERIS_TYPE":"0","ECCENTRICITY":"0.00016660","MEAN_MOTION_DOT":"-0.00002490","OBJECT_NAME":"STARLINK-1058","CLASSIFICATION_TYPE":"U","MEAN_ELEMENT_THEORY":"SGP4","CENTER_NAME":"EARTH","APOAPSIS":"548.372","REF_FRAME":"TEME","MEAN_ANOMALY":"300.0387","PERIOD":"95.592","BSTAR":"-0.00014831000000","REV_AT_EPOCH":"12862","TLE_LINE1":"1 44763U 19074BC  22072.90379019 -.00002490  00000-0 -14831-3 0  9993","GP_ID":"198686742","SEMIMAJOR_AXIS":"6925.353","OBJECT_ID":"2019-074BC","RCS_SIZE":"LARGE","OBJECT_TYPE":"PAYLOAD","MEAN_MOTION_DDOT":"0.0000000000000","DECAY_DATE":null,"NORAD_CAT_ID":"44763","INCLINATION":"53.0555","COUNTRY_CODE":"US"},{"OBJECT_NAME":"STARLINK-1059","MEAN_MOTION_DOT":"-0.00000187","CLASSIFICATION_TYPE":"U","EPHEMERIS_TYPE":"0","ECCENTRICITY":"0.00017230","RA_OF_ASC_NODE":"266.7940","PERIAPSIS":"546.024","ARG_OF_PERICENTER":"63.8918","SITE":"AFETR","TLE_LINE2":"2 44764  53.0540 266.7940 0001723  63.8918 296.2248 15.06398893128888","LAUNCH_DATE":"2019-11-11","ELEMENT_SET_NO":"999","FILE":"3358388","EPOCH":"2022-03-13T19:31:24.381696","MEAN_MOTION":"15.06398893","TIME_SYSTEM":"UTC","NORAD_CAT_ID":"44764","DECAY_DATE":null,"MEAN_MOTION_DDOT":"0.0000000000000","INCLINATION":"53.0540","COUNTRY_CODE":"US","OBJECT_ID":"2019-074BD","OBJECT_TYPE":"PAYLOAD","RCS_SIZE":"LARGE","GP_ID":"198686000","SEMIMAJOR_AXIS":"6925.352","REV_AT_EPOCH":"12888","TLE_LINE1":"1 44764U 19074BD  22072.81347664 -.00000187  00000-0  63823-5 0  9992","MEAN_ELEMENT_THEORY":"SGP4","CENTER_NAME":"EARTH","APOAPSIS":"548.410","BSTAR":"0.00000638230000","REF_FRAME":"TEME","PERIOD":"95.592","MEAN_ANOMALY":"296.2248"}];
